[
    {
        "CCSDS_OMM_VERS": "3.0",
        "COMMENT": "GENERATED VIA SPACE-TRACK.ORG API",
        "CREATION_DATE": "2025-03-02T18:08:23",
        "ORIGINATOR": "18 SPCS",
        "OBJECT_NAME": "BEIDOU 3 G2",
        "OBJECT_ID": "2020-017A",
        "CENTER_NAME": "EARTH",
        "REF_FRAME": "TEME",
        "TIME_SYSTEM": "UTC",
        "MEAN_ELEMENT_THEORY": "SGP4",
        "EPOCH": "2025-03-02T09:37:38.622144",
        "MEAN_MOTION": "1.00272163",
        "ECCENTRICITY": "0.00030020",
        "INCLINATION": "2.6909",
        "RA_OF_ASC_NODE": "37.9508",
        "ARG_OF_PERICENTER": "299.8212",
        "MEAN_ANOMALY": "47.0905",
        "EPHEMERIS_TYPE": "0",
        "CLASSIFICATION_TYPE": "U",
        "NORAD_CAT_ID": "45344",
        "ELEMENT_SET_NO": "999",
        "REV_AT_EPOCH": "1852",
        "BSTAR": "0.00000000000000",
        "MEAN_MOTION_DOT": "-0.00000143",
        "MEAN_MOTION_DDOT": "0.0000000000000",
        "SEMIMAJOR_AXIS": "42164.626",
        "PERIOD": "1436.091",
        "APOAPSIS": "35799.149",
        "PERIAPSIS": "35773.833",
        "OBJECT_TYPE": "PAYLOAD",
        "RCS_SIZE": "LARGE",
        "COUNTRY_CODE": "PRC",
        "LAUNCH_DATE": "2020-03-09",
        "SITE": "XSC",
        "DECAY_DATE": null,
        "FILE": "4657142",
        "GP_ID": "282088623",
        "TLE_LINE0": "0 BEIDOU 3 G2",
        "TLE_LINE1": "1 45344U 20017A   25061.40114146 -.00000143  00000-0  00000-0 0  9994",
        "TLE_LINE2": "2 45344   2.6909  37.9508 0003002 299.8212  47.0905  1.00272163 18521"
    }
]